
 PEER Ground Motion Database, Time Series Search Report -- NGA-West2 -- 2022-06-08


 -- Summary of PEER Ground Motion Database Search Criteria --
Magnitude Min:, 6.5
Magnitude Max:, 8.0
Rrup Min (km):, -1.0e-06
Rrup Max (km):, 99999
Rjb Min (km):, -1.0e-06
Rjb Max (km):, 99999
Vs30 Min (m/sec):, 500.0
Vs30 Max (m/sec):, 10000.0
D9-95 Min (sec):, -1.0e-06
D9-95 Max (sec):, 99999
Scale Factor Min:, -1.0e-06
Scale Factor Max:, 99999
Period Array:, 
Weight Array:, 
Record Sequence Number:, 
Earthquake Name:, 
Station Name:, 
User-Defined Maximum Number of Records:, 100
Pulse:, 1
Damping Ratio:, 0.05
Scaling Method:, No Scaling
Suite Average:, Arithmetic
Single-Period-Scaling Period (sec):, 
Component:, SRSS
Fault Type:, Normal+Reverse


 -- Summary of Metadata of Selected Records --
Result ID, Spectral Ordinate, Record Sequence Number, Mean Squared Error, Scale Factor, Tp-Pulse Period (sec), 5-75% Duration (sec), 5-95% Duration (sec), Arias Intensity (m/sec), Earthquake Name, Year, Station Name, Magnitude, Mechanism, Rjb (km), Rrup (km), Vs30 (m/sec), Lowest Useable Frequency (Hz), Initial-search Scale Factor, Horizontal-1 Acc. Filename, Horizontal-2 Acc. Filename, Vertical Acc. Filename
1, SRSS, 14, 0.3606, 1.0, -, 12.4, 33.6, 0.3, "Kern County", 1952, "Santa Barbara Courthouse", 7.36, Reverse, 81.3, 82.19, 514.99, 0.375, 1.0, RSN14_KERN_SBA042.AT2, RSN14_KERN_SBA132.AT2 , RSN14_KERN_SBA-UP.AT2  
2, SRSS, 72, 0.3143, 1.0, -, 4.2, 13.0, 0.3, "San Fernando", 1971, "Lake Hughes #4", 6.61, Reverse, 19.45, 25.07, 600.06, 0.25, 1.0, RSN72_SFERN_L04111.AT2, RSN72_SFERN_L04201.AT2 , RSN72_SFERN_L04DWN.AT2  
3, SRSS, 285, 0.2529, 1.0, 1.71332, 5.2, 19.6, 0.4, "Irpinia_ Italy-01", 1980, "Bagnoli Irpinio", 6.9, Normal, 8.14, 8.18, 649.67, 0.1125, 1.0, RSN285_ITALY_A-BAG000.AT2, RSN285_ITALY_A-BAG270.AT2 , RSN285_ITALY_A-BAG-UP.AT2  
4, SRSS, 288, 0.2165, 1.0, -, 5.7, 13.2, 0.5, "Irpinia_ Italy-01", 1980, "Brienza", 6.9, Normal, 22.54, 22.56, 561.04, 0.2875, 1.0, RSN288_ITALY_A-BRZ000.AT2, RSN288_ITALY_A-BRZ270.AT2 , RSN288_ITALY_A-BRZ-UP.AT2  
5, SRSS, 291, 0.235, 1.0, -, 18.4, 24.9, 0.3, "Irpinia_ Italy-01", 1980, "Rionero In Vulture", 6.9, Normal, 27.49, 30.07, 574.88, 0.375, 1.0, RSN291_ITALY_A-VLT000.AT2, RSN291_ITALY_A-VLT270.AT2 , RSN291_ITALY_A-VLT-UP.AT2  
6, SRSS, 572, 0.151, 1.0, -, 7.5, 12.4, 0.4, "Taiwan SMART1(45)", 1986, "SMART1 E02", 7.3, Reverse, 51.35, 51.35, 671.52, 0.1, 1.0, RSN572_SMART1.45_45EO2EW.AT2, RSN572_SMART1.45_45EO2NS.AT2 , RSN572_SMART1.45_45EO2DN.AT2  
7, SRSS, 587, 0.4997, 1.0, -, 3.8, 8.4, 0.7, "New Zealand-02", 1987, "Matahina Dam", 6.6, Normal, 16.09, 16.09, 551.3, 0.25, 1.0, RSN587_NEWZEAL_A-MAT083.AT2, RSN587_NEWZEAL_A-MAT353.AT2 , RSN587_NEWZEAL_A-MAT-UP.AT2  
8, SRSS, 734, 0.4793, 1.0, -, 8.6, 19.3, 0.1, "Loma Prieta", 1989, "APEEL 3E Hayward CSUH", 6.93, Reverse Oblique, 52.39, 52.53, 517.06, 0.125, 1.0, RSN734_LOMAP_A3E000.AT2, RSN734_LOMAP_A3E090.AT2 , RSN734_LOMAP_A3E-UP.AT2  
9, SRSS, 748, 0.2963, 1.0, -, 4.9, 12.3, 0.2, "Loma Prieta", 1989, "Belmont - Envirotech", 6.93, Reverse Oblique, 43.94, 44.11, 627.59, 0.1, 1.0, RSN748_LOMAP_BES075.AT2, RSN748_LOMAP_BES345.AT2 , RSN748_LOMAP_BES-UP.AT2  
10, SRSS, 750, 0.4832, 1.0, -, 7.0, 16.9, 0.2, "Loma Prieta", 1989, "Berkeley LBL", 6.93, Reverse Oblique, 79.16, 79.25, 623.52, 0.125, 1.0, RSN750_LOMAP_BRK000.AT2, RSN750_LOMAP_BRK090.AT2 , RSN750_LOMAP_BRK-UP.AT2  
11, SRSS, 751, 0.3365, 1.0, -, 8.2, 17.4, 0.2, "Loma Prieta", 1989, "Calaveras Reservoir", 6.93, Reverse Oblique, 35.28, 35.49, 571.99, 0.084, 1.0, RSN751_LOMAP_CLR090.AT2, RSN751_LOMAP_CLR180.AT2 , RSN751_LOMAP_CLR-UP.AT2  
12, SRSS, 755, 0.4973, 1.0, -, 6.0, 15.7, 1.5, "Loma Prieta", 1989, "Coyote Lake Dam - Southwest Abutment", 6.93, Reverse Oblique, 19.97, 20.34, 561.43, 0.1625, 1.0, RSN755_LOMAP_CYC195.AT2, RSN755_LOMAP_CYC285.AT2 , RSN755_LOMAP_CYC-UP.AT2  
13, SRSS, 769, 0.1335, 1.0, -, 4.5, 13.0, 0.4, "Loma Prieta", 1989, "Gilroy Array #6", 6.93, Reverse Oblique, 17.92, 18.33, 663.31, 0.1625, 1.0, RSN769_LOMAP_G06000.AT2, RSN769_LOMAP_G06090.AT2 , RSN769_LOMAP_G06-UP.AT2  
14, SRSS, 771, 0.3067, 1.0, -, 4.2, 7.5, 0.5, "Loma Prieta", 1989, "Golden Gate Bridge", 6.93, Reverse Oblique, 79.71, 79.81, 584.17, 0.1625, 1.0, RSN771_LOMAP_GGB270.AT2, RSN771_LOMAP_GGB360.AT2 , RSN771_LOMAP_GGB-UP.AT2  
15, SRSS, 793, 0.4669, 1.0, -, 5.2, 10.2, 0.1, "Loma Prieta", 1989, "SF - Cliff House", 6.93, Reverse Oblique, 78.58, 78.68, 614.57, 0.1375, 1.0, RSN793_LOMAP_CFH000.AT2, RSN793_LOMAP_CFH090.AT2 , RSN793_LOMAP_CFH-UP.AT2  
16, SRSS, 794, 0.2499, 1.0, -, 4.4, 9.5, 0.1, "Loma Prieta", 1989, "SF - Diamond Heights", 6.93, Reverse Oblique, 71.23, 71.33, 582.9, 0.0875, 1.0, RSN794_LOMAP_DMH000.AT2, RSN794_LOMAP_DMH090.AT2 , RSN794_LOMAP_DMH-UP.AT2  
17, SRSS, 796, 0.1661, 1.0, -, 4.7, 10.2, 0.3, "Loma Prieta", 1989, "SF - Presidio", 6.93, Reverse Oblique, 77.34, 77.43, 594.47, 0.1, 1.0, RSN796_LOMAP_PRS000.AT2, RSN796_LOMAP_PRS090.AT2 , RSN796_LOMAP_PRS-UP.AT2  
18, SRSS, 797, 0.4612, 1.0, -, 8.2, 14.2, 0.1, "Loma Prieta", 1989, "SF - Rincon Hill", 6.93, Reverse Oblique, 74.04, 74.14, 873.1, 0.125, 1.0, RSN797_LOMAP_RIN000.AT2, RSN797_LOMAP_RIN090.AT2 , RSN797_LOMAP_RIN-UP.AT2  
19, SRSS, 801, 0.4196, 1.0, -, 6.3, 10.1, 1.3, "Loma Prieta", 1989, "San Jose - Santa Teresa Hills", 6.93, Reverse Oblique, 14.18, 14.69, 671.77, 0.0375, 1.0, RSN801_LOMAP_SJTE225.AT2, RSN801_LOMAP_SJTE315.AT2 , RSN801_LOMAP_SJTE-UP.AT2  
20, SRSS, 804, 0.4894, 1.0, -, 5.3, 12.1, 0.1, "Loma Prieta", 1989, "So. San Francisco_ Sierra Pt.", 6.93, Reverse Oblique, 63.03, 63.15, 1020.62, 0.1, 1.0, RSN804_LOMAP_SSF115.AT2, RSN804_LOMAP_SSF205.AT2 , RSN804_LOMAP_SSF-UP.AT2  
21, SRSS, 942, 0.3294, 1.0, -, 9.8, 21.2, 0.2, "Northridge-01", 1994, "Alhambra - Fremont School", 6.69, Reverse, 35.66, 36.77, 549.75, 0.24, 1.0, RSN942_NORTHR_ALH090.AT2, RSN942_NORTHR_ALH360.AT2 , RSN942_NORTHR_ALH-UP.AT2  
22, SRSS, 950, 0.4057, 1.0, -, 6.9, 13.8, 0.1, "Northridge-01", 1994, "Baldwin Park - N Holly", 6.69, Reverse, 47.72, 47.98, 544.68, 0.3125, 1.0, RSN950_NORTHR_NHO180.AT2, RSN950_NORTHR_NHO270.AT2 , RSN950_NORTHR_NHO-UP.AT2  
23, SRSS, 954, 0.4286, 1.0, -, 6.1, 10.7, 0.5, "Northridge-01", 1994, "Big Tujunga_ Angeles Nat F", 6.69, Reverse, 19.1, 19.74, 550.11, 0.4125, 1.0, RSN954_NORTHR_TUJ262.AT2, RSN954_NORTHR_TUJ352.AT2 , RSN954_NORTHR_TUJ-UP.AT2  
24, SRSS, 957, 0.2149, 1.0, -, 5.9, 11.6, 0.3, "Northridge-01", 1994, "Burbank - Howard Rd.", 6.69, Reverse, 15.87, 16.88, 581.93, 0.125, 1.0, RSN957_NORTHR_HOW060.AT2, RSN957_NORTHR_HOW330.AT2 , RSN957_NORTHR_HOW-UP.AT2  
25, SRSS, 989, 0.2825, 1.0, -, 5.6, 9.0, 0.7, "Northridge-01", 1994, "LA - Chalon Rd", 6.69, Reverse, 9.87, 20.45, 740.05, 0.2625, 1.0, RSN989_NORTHR_CHL070.AT2, RSN989_NORTHR_CHL160.AT2 , RSN989_NORTHR_CHL-UP.AT2  
26, SRSS, 1011, 0.143, 1.0, -, 5.1, 8.7, 0.2, "Northridge-01", 1994, "LA - Wonderland Ave", 6.69, Reverse, 15.11, 20.29, 1222.52, 0.175, 1.0, RSN1011_NORTHR_WON095.AT2, RSN1011_NORTHR_WON185.AT2 , RSN1011_NORTHR_WON-UP.AT2  
27, SRSS, 1020, 0.3245, 1.0, -, 5.4, 9.8, 0.5, "Northridge-01", 1994, "Lake Hughes #12A", 6.69, Reverse, 20.77, 21.36, 602.1, 0.12, 1.0, RSN1020_NORTHR_H12090.AT2, RSN1020_NORTHR_H12180.AT2 , RSN1020_NORTHR_H12-UP.AT2  
28, SRSS, 1023, 0.4653, 1.0, -, 5.4, 9.3, 0.2, "Northridge-01", 1994, "Lake Hughes #9", 6.69, Reverse, 24.86, 25.36, 670.84, 0.175, 1.0, RSN1023_NORTHR_L09000.AT2, RSN1023_NORTHR_L09090.AT2 , RSN1023_NORTHR_L09-UP.AT2  
29, SRSS, 1058, 0.4679, 1.0, -, 5.8, 10.3, 0.6, "Northridge-01", 1994, "Point Mugu - Laguna Peak", 6.69, Reverse, 36.61, 41.93, 527.7, 0.375, 1.0, RSN1058_NORTHR_PTM000.AT2, RSN1058_NORTHR_PTM090.AT2 , RSN1058_NORTHR_PTM-UP.AT2  
30, SRSS, 1078, 0.4019, 1.0, -, 4.4, 8.3, 0.9, "Northridge-01", 1994, "Santa Susana Ground", 6.69, Reverse, 1.69, 16.74, 715.12, 0.14, 1.0, RSN1078_NORTHR_SSU000.AT2, RSN1078_NORTHR_SSU090.AT2 ,  -----   
31, SRSS, 1089, 0.3249, 1.0, -, 5.6, 9.3, 1.0, "Northridge-01", 1994, "Topanga - Fire Sta", 6.69, Reverse, 10.31, 22.28, 505.97, 0.168, 1.0, RSN1089_NORTHR_TPF360.AT2, RSN1089_NORTHR_TPF270.AT2 , RSN1089_NORTHR_TPF-UP.AT2  
32, SRSS, 1091, 0.1197, 1.0, -, 4.3, 8.3, 0.4, "Northridge-01", 1994, "Vasquez Rocks Park", 6.69, Reverse, 23.1, 23.64, 996.43, 0.25, 1.0, RSN1091_NORTHR_VAS000.AT2, RSN1091_NORTHR_VAS090.AT2 , RSN1091_NORTHR_VAS-UP.AT2  
33, SRSS, 1184, 0.2233, 1.0, -, 6.9, 29.8, 0.7, "Chi-Chi_ Taiwan", 1999, "CHY010", 7.62, Reverse Oblique, 19.93, 19.96, 538.69, 0.0375, 1.0, RSN1184_CHICHI_CHY010-N.AT2, RSN1184_CHICHI_CHY010-W.AT2 , RSN1184_CHICHI_CHY010-V.AT2  
34, SRSS, 1206, 0.4617, 1.0, -, 24.2, 37.1, 0.3, "Chi-Chi_ Taiwan", 1999, "CHY042", 7.62, Reverse Oblique, 27.47, 28.17, 665.2, 0.075, 1.0, RSN1206_CHICHI_CHY042-E.AT2, RSN1206_CHICHI_CHY042-N.AT2 , RSN1206_CHICHI_CHY042-V.AT2  
35, SRSS, 1211, 0.2082, 1.0, -, 20.1, 34.5, 0.4, "Chi-Chi_ Taiwan", 1999, "CHY052", 7.62, Reverse Oblique, 38.7, 39.02, 573.04, 0.0375, 1.0, RSN1211_CHICHI_CHY052-N.AT2, RSN1211_CHICHI_CHY052-W.AT2 , RSN1211_CHICHI_CHY052-V.AT2  
36, SRSS, 1227, 0.4819, 1.0, -, 19.1, 32.0, 1.1, "Chi-Chi_ Taiwan", 1999, "CHY074", 7.62, Reverse Oblique, 0.7, 10.8, 553.43, 0.025, 1.0, RSN1227_CHICHI_CHY074-E.AT2, RSN1227_CHICHI_CHY074-N.AT2 , RSN1227_CHICHI_CHY074-V.AT2  
37, SRSS, 1234, 0.2287, 1.0, -, 23.6, 31.4, 1.0, "Chi-Chi_ Taiwan", 1999, "CHY086", 7.62, Reverse Oblique, 27.57, 28.42, 665.2, 0.125, 1.0, RSN1234_CHICHI_CHY086-E.AT2, RSN1234_CHICHI_CHY086-N.AT2 , RSN1234_CHICHI_CHY086-V.AT2  
38, SRSS, 1235, 0.1732, 1.0, -, 19.0, 31.9, 0.6, "Chi-Chi_ Taiwan", 1999, "CHY087", 7.62, Reverse Oblique, 28.79, 28.91, 505.2, 0.0375, 1.0, RSN1235_CHICHI_CHY087-E.AT2, RSN1235_CHICHI_CHY087-N.AT2 , RSN1235_CHICHI_CHY087-V.AT2  
39, SRSS, 1257, 0.4729, 1.0, -, 14.4, 25.9, 0.2, "Chi-Chi_ Taiwan", 1999, "HWA003", 7.62, Reverse Oblique, 52.46, 56.14, 1525.85, 0.05, 1.0, RSN1257_CHICHI_HWA003-N.AT2, RSN1257_CHICHI_HWA003-W.AT2 , RSN1257_CHICHI_HWA003-V.AT2  
40, SRSS, 1259, 0.4231, 1.0, -, 9.9, 20.1, 0.2, "Chi-Chi_ Taiwan", 1999, "HWA006", 7.62, Reverse Oblique, 43.49, 47.86, 559.11, 0.075, 1.0, RSN1259_CHICHI_HWA006-N.AT2, RSN1259_CHICHI_HWA006-W.AT2 , RSN1259_CHICHI_HWA006-V.AT2  
41, SRSS, 1267, 0.4184, 1.0, -, 10.1, 28.7, 0.1, "Chi-Chi_ Taiwan", 1999, "HWA016", 7.62, Reverse Oblique, 48.19, 52.18, 576.55, 0.0625, 1.0, RSN1267_CHICHI_HWA016-E.AT2, RSN1267_CHICHI_HWA016-N.AT2 , RSN1267_CHICHI_HWA016-V.AT2  
42, SRSS, 1268, 0.4357, 1.0, -, 11.9, 22.4, 0.1, "Chi-Chi_ Taiwan", 1999, "HWA017", 7.62, Reverse Oblique, 47.04, 51.11, 578.11, 0.025, 1.0, RSN1268_CHICHI_HWA017-E.AT2, RSN1268_CHICHI_HWA017-N.AT2 , RSN1268_CHICHI_HWA017-V.AT2  
43, SRSS, 1271, 0.3445, 1.0, -, 14.5, 22.3, 0.3, "Chi-Chi_ Taiwan", 1999, "HWA022", 7.62, Reverse Oblique, 58.76, 62.07, 567.64, 0.025, 1.0, RSN1271_CHICHI_HWA022-E.AT2, RSN1271_CHICHI_HWA022-N.AT2 , RSN1271_CHICHI_HWA022-V.AT2  
44, SRSS, 1280, 0.3553, 1.0, -, 8.8, 20.4, 0.3, "Chi-Chi_ Taiwan", 1999, "HWA031", 7.62, Reverse Oblique, 47.41, 51.46, 602.29, 0.025, 1.0, RSN1280_CHICHI_HWA031-E.AT2, RSN1280_CHICHI_HWA031-N.AT2 , RSN1280_CHICHI_HWA031-V.AT2  
45, SRSS, 1281, 0.1906, 1.0, -, 8.7, 17.9, 0.4, "Chi-Chi_ Taiwan", 1999, "HWA032", 7.62, Reverse Oblique, 42.87, 47.31, 573.04, 0.625, 1.0, RSN1281_CHICHI_HWA032-E.AT2, RSN1281_CHICHI_HWA032-N.AT2 , RSN1281_CHICHI_HWA032-V.AT2  
46, SRSS, 1284, 0.4281, 1.0, -, 11.4, 22.0, 0.1, "Chi-Chi_ Taiwan", 1999, "HWA035", 7.62, Reverse Oblique, 44.02, 48.35, 677.49, 0.025, 1.0, RSN1284_CHICHI_HWA035-E.AT2, RSN1284_CHICHI_HWA035-N.AT2 , RSN1284_CHICHI_HWA035-V.AT2  
47, SRSS, 1293, 0.4781, 1.0, -, 8.3, 17.3, 0.2, "Chi-Chi_ Taiwan", 1999, "HWA046", 7.62, Reverse Oblique, 47.79, 51.8, 617.52, 0.025, 1.0, RSN1293_CHICHI_HWA046-N.AT2, RSN1293_CHICHI_HWA046-W.AT2 , RSN1293_CHICHI_HWA046-V.AT2  
48, SRSS, 1301, 0.3233, 1.0, -, 9.5, 16.9, 0.2, "Chi-Chi_ Taiwan", 1999, "HWA056", 7.62, Reverse Oblique, 35.9, 41.1, 511.3, 0.0375, 1.0, RSN1301_CHICHI_HWA056-E.AT2, RSN1301_CHICHI_HWA056-N.AT2 , RSN1301_CHICHI_HWA056-V.AT2  
49, SRSS, 1303, 0.2502, 1.0, -, 9.4, 17.4, 0.2, "Chi-Chi_ Taiwan", 1999, "HWA058", 7.62, Reverse Oblique, 41.17, 45.77, 529.54, 0.025, 1.0, RSN1303_CHICHI_HWA058-E.AT2, RSN1303_CHICHI_HWA058-N.AT2 , RSN1303_CHICHI_HWA058-V.AT2  
50, SRSS, 1350, 0.1858, 1.0, -, 8.7, 18.4, 0.7, "Chi-Chi_ Taiwan", 1999, "ILA067", 7.62, Reverse Oblique, 33.27, 38.82, 665.2, 0.0375, 1.0, RSN1350_CHICHI_ILA067-E.AT2, RSN1350_CHICHI_ILA067-N.AT2 , RSN1350_CHICHI_ILA067-V.AT2  
51, SRSS, 1434, 0.4717, 1.0, -, 16.7, 28.9, 0.3, "Chi-Chi_ Taiwan", 1999, "TAP049", 7.62, Reverse Oblique, 107.28, 108.1, 573.04, 0.0375, 1.0, RSN1434_CHICHI_TAP049-E.AT2, RSN1434_CHICHI_TAP049-N.AT2 , RSN1434_CHICHI_TAP049-V.AT2  
52, SRSS, 1475, 0.3322, 1.0, 8.372, 12.0, 24.7, 0.2, "Chi-Chi_ Taiwan", 1999, "TCU026", 7.62, Reverse Oblique, 56.03, 56.12, 569.98, 0.025, 1.0, RSN1475_CHICHI_TCU026-E.AT2, RSN1475_CHICHI_TCU026-N.AT2 , RSN1475_CHICHI_TCU026-V.AT2  
53, SRSS, 1484, 0.4307, 1.0, -, 14.8, 21.4, 1.1, "Chi-Chi_ Taiwan", 1999, "TCU042", 7.62, Reverse Oblique, 26.31, 26.31, 578.98, 0.0625, 1.0, RSN1484_CHICHI_TCU042-E.AT2, RSN1484_CHICHI_TCU042-N.AT2 , RSN1484_CHICHI_TCU042-V.AT2  
54, SRSS, 1488, 0.3383, 1.0, -, 22.6, 33.3, 0.7, "Chi-Chi_ Taiwan", 1999, "TCU048", 7.62, Reverse Oblique, 13.53, 13.53, 551.21, 0.05, 1.0, RSN1488_CHICHI_TCU048-E.AT2, RSN1488_CHICHI_TCU048-N.AT2 , RSN1488_CHICHI_TCU048-V.AT2  
55, SRSS, 1490, 0.3888, 1.0, -, 19.4, 27.0, 0.8, "Chi-Chi_ Taiwan", 1999, "TCU050", 7.62, Reverse Oblique, 9.49, 9.49, 542.41, 0.0375, 1.0, RSN1490_CHICHI_TCU050-E.AT2, RSN1490_CHICHI_TCU050-N.AT2 , RSN1490_CHICHI_TCU050-V.AT2  
56, SRSS, 1497, 0.4973, 1.0, -, 20.6, 29.8, 0.6, "Chi-Chi_ Taiwan", 1999, "TCU057", 7.62, Reverse Oblique, 11.83, 11.83, 555.23, 0.0375, 1.0, RSN1497_CHICHI_TCU057-E.AT2, RSN1497_CHICHI_TCU057-N.AT2 , RSN1497_CHICHI_TCU057-V.AT2  
57, SRSS, 1519, 0.5117, 1.0, 10.395, 16.1, 24.1, 0.5, "Chi-Chi_ Taiwan", 1999, "TCU087", 7.62, Reverse Oblique, 6.98, 6.98, 538.69, 0.0625, 1.0, RSN1519_CHICHI_TCU087-E.AT2, RSN1519_CHICHI_TCU087-N.AT2 , RSN1519_CHICHI_TCU087-V.AT2  
58, SRSS, 1527, 0.4812, 1.0, -, 20.8, 26.8, 0.6, "Chi-Chi_ Taiwan", 1999, "TCU100", 7.62, Reverse Oblique, 11.37, 11.37, 535.13, 0.0375, 1.0, RSN1527_CHICHI_TCU100-E.AT2, RSN1527_CHICHI_TCU100-N.AT2 , RSN1527_CHICHI_TCU100-V.AT2  
59, SRSS, 1532, 0.4538, 1.0, -, 18.9, 28.0, 0.7, "Chi-Chi_ Taiwan", 1999, "TCU105", 7.62, Reverse Oblique, 17.16, 17.16, 575.54, 0.0375, 1.0, RSN1532_CHICHI_TCU105-E.AT2, RSN1532_CHICHI_TCU105-N.AT2 , RSN1532_CHICHI_TCU105-V.AT2  
60, SRSS, 1555, 0.4567, 1.0, -, 11.2, 21.7, 0.3, "Chi-Chi_ Taiwan", 1999, "TCU147", 7.62, Reverse Oblique, 70.61, 71.27, 537.92, 0.025, 1.0, RSN1555_CHICHI_TCU147-E.AT2, RSN1555_CHICHI_TCU147-N.AT2 , RSN1555_CHICHI_TCU147-V.AT2  
61, SRSS, 3745, 0.2552, 1.0, -, 5.8, 11.1, 0.4, "Cape Mendocino", 1992, "Butler Valley Station 2", 7.01, Reverse, 43.82, 45.43, 525.26, 0.25, 1.0, RSN3745_CAPEMEND_BVS060.AT2, RSN3745_CAPEMEND_BVS330.AT2 , RSN3745_CAPEMEND_BVS-UP.AT2  
62, SRSS, 4013, 0.2165, 1.0, -, 8.7, 18.8, 0.2, "San Simeon_ CA", 2003, "San Antonio Dam - Toe", 6.52, Reverse, 16.17, 19.01, 509.04, 0.25, 1.0, RSN4013_SANSIMEO_36258021.AT2, RSN4013_SANSIMEO_36258111.AT2 , RSN4013_SANSIMEO_36258-UP.AT2  
63, SRSS, 4213, 0.4649, 1.0, -, 2.6, 9.4, 0.6, "Niigata_ Japan", 2004, "NIG023", 6.63, Reverse, 25.33, 25.82, 654.76, 0.075, 1.0, RSN4213_NIIGATA_NIG023NS.AT2, RSN4213_NIIGATA_NIG023EW.AT2 , RSN4213_NIIGATA_NIG023UD.AT2  
64, SRSS, 4227, 0.3602, 1.0, -, 6.2, 13.8, 0.4, "Niigata_ Japan", 2004, "NIGH10", 6.63, Reverse, 39.17, 39.37, 653.28, 0.05375, 1.0, RSN4227_NIIGATA_NIGH10NS.AT2, RSN4227_NIIGATA_NIGH10EW.AT2 , RSN4227_NIIGATA_NIGH10UD.AT2  
65, SRSS, 4455, 0.4789, 1.0, -, 5.2, 12.1, 0.7, "Montenegro_ Yugoslavia", 1979, "Herceg Novi - O.S.D. Paviviv", 7.1, Reverse, 23.59, 25.55, 585.04, 0.625, 1.0, RSN4455_MONTENE.GRO_HRZ000.AT2, RSN4455_MONTENE.GRO_HRZ090.AT2 , RSN4455_MONTENE.GRO_HRZ-V.AT2  
66, SRSS, 4841, 0.2088, 1.0, -, 7.1, 15.8, 0.7, "Chuetsu-oki_ Japan", 2007, "Joetsu Yasuzukaku Yasuzuka", 6.8, Reverse, 20.65, 25.52, 655.45, 0.05, 1.0, RSN4841_CHUETSU_65004NS.AT2, RSN4841_CHUETSU_65004EW.AT2 , RSN4841_CHUETSU_65004UD.AT2  
67, SRSS, 4843, 0.1751, 1.0, -, 7.2, 19.9, 0.7, "Chuetsu-oki_ Japan", 2007, "Matsushiro Tokamachi", 6.8, Reverse, 18.16, 25.03, 640.14, 0.05, 1.0, RSN4843_CHUETSU_65006NS.AT2, RSN4843_CHUETSU_65006EW.AT2 , RSN4843_CHUETSU_65006UD.AT2  
68, SRSS, 4844, 0.2818, 1.0, -, 12.1, 24.2, 0.3, "Chuetsu-oki_ Japan", 2007, "Tokamachi Matsunoyama", 6.8, Reverse, 23.01, 28.75, 640.14, 0.05, 1.0, RSN4844_CHUETSU_65007NS.AT2, RSN4844_CHUETSU_65007EW.AT2 , RSN4844_CHUETSU_65007UD.AT2  
69, SRSS, 4846, 0.4331, 1.0, -, 4.3, 10.0, 1.0, "Chuetsu-oki_ Japan", 2007, "Joetsu Yanagishima paddocks", 6.8, Reverse, 28.07, 31.43, 605.71, 0.075, 1.0, RSN4846_CHUETSU_65009NS.AT2, RSN4846_CHUETSU_65009EW.AT2 , RSN4846_CHUETSU_65009UD.AT2  
70, SRSS, 4851, 0.4272, 1.0, -, 15.0, 27.1, 0.1, "Chuetsu-oki_ Japan", 2007, "Joetsu Itakuraku needle", 6.8, Reverse, 34.95, 36.73, 572.37, 0.075, 1.0, RSN4851_CHUETSU_65017NS.AT2, RSN4851_CHUETSU_65017EW.AT2 , RSN4851_CHUETSU_65017UD.AT2  
71, SRSS, 4852, 0.1712, 1.0, -, 4.9, 14.7, 0.4, "Chuetsu-oki_ Japan", 2007, "Joetsu_ Aramaki District", 6.8, Reverse, 30.26, 32.54, 605.71, 0.0875, 1.0, RSN4852_CHUETSU_65018NS.AT2, RSN4852_CHUETSU_65018EW.AT2 , RSN4852_CHUETSU_65018UD.AT2  
72, SRSS, 4854, 0.084, 1.0, -, 7.0, 21.1, 0.3, "Chuetsu-oki_ Japan", 2007, "Nadachiku Joetsu City", 6.8, Reverse, 35.79, 35.93, 570.62, 0.1, 1.0, RSN4854_CHUETSU_65020NS.AT2, RSN4854_CHUETSU_65020EW.AT2 , RSN4854_CHUETSU_65020UD.AT2  
73, SRSS, 4858, 0.2166, 1.0, -, 4.7, 17.0, 0.5, "Chuetsu-oki_ Japan", 2007, "Tokamachi Chitosecho", 6.8, Reverse, 25.35, 30.65, 640.14, 0.0625, 1.0, RSN4858_CHUETSU_65028NS.AT2, RSN4858_CHUETSU_65028EW.AT2 , RSN4858_CHUETSU_65028UD.AT2  
74, SRSS, 4869, 0.0763, 1.0, -, 9.9, 22.5, 0.5, "Chuetsu-oki_ Japan", 2007, "Kawaguchi", 6.8, Reverse, 23.63, 29.25, 640.14, 0.0625, 1.0, RSN4869_CHUETSU_65042NS.AT2, RSN4869_CHUETSU_65042EW.AT2 , RSN4869_CHUETSU_65042UD.AT2  
75, SRSS, 4870, 0.1179, 1.0, -, 8.8, 18.9, 0.4, "Chuetsu-oki_ Japan", 2007, "Horinouchi Uonuma City", 6.8, Reverse, 29.9, 34.51, 561.59, 0.1, 1.0, RSN4870_CHUETSU_65043NS.AT2, RSN4870_CHUETSU_65043EW.AT2 , RSN4870_CHUETSU_65043UD.AT2  
76, SRSS, 4872, 0.1531, 1.0, -, 8.0, 22.7, 0.3, "Chuetsu-oki_ Japan", 2007, "Sawa Mizuguti Tokamachi", 6.8, Reverse, 21.17, 27.3, 640.14, 0.0875, 1.0, RSN4872_CHUETSU_65053NS.AT2, RSN4872_CHUETSU_65053EW.AT2 , RSN4872_CHUETSU_65053UD.AT2  
77, SRSS, 4887, 0.2334, 1.0, -, 4.7, 16.1, 0.4, "Chuetsu-oki_ Japan", 2007, "Joetsu Nakanomata", 6.8, Reverse, 36.62, 36.79, 561.59, 0.075, 1.0, RSN4887_CHUETSU_6CB61NS.AT2, RSN4887_CHUETSU_6CB61EW.AT2 , RSN4887_CHUETSU_6CB61UD.AT2  
78, SRSS, 4890, 0.2881, 1.0, -, 3.3, 8.4, 0.7, "Chuetsu-oki_ Japan", 2007, "Iizuna Mure", 6.8, Reverse, 66.1, 68.27, 526.13, 0.0625, 1.0, RSN4890_CHUETSU_70025NS.AT2, RSN4890_CHUETSU_70025EW.AT2 , RSN4890_CHUETSU_70025UD.AT2  
79, SRSS, 4892, 0.4193, 1.0, -, 7.6, 17.1, 0.2, "Chuetsu-oki_ Japan", 2007, "Nagano Togakushi", 6.8, Reverse, 77.51, 78.94, 655.45, 0.075, 1.0, RSN4892_CHUETSU_70027NS.AT2, RSN4892_CHUETSU_70027EW.AT2 , RSN4892_CHUETSU_70027UD.AT2  
80, SRSS, 4893, 0.1782, 1.0, -, 5.3, 16.9, 0.5, "Chuetsu-oki_ Japan", 2007, "Toyotsu Nakano", 6.8, Reverse, 61.16, 63.54, 561.59, 0.0625, 1.0, RSN4893_CHUETSU_70031NS.AT2, RSN4893_CHUETSU_70031EW.AT2 , RSN4893_CHUETSU_70031UD.AT2  
81, SRSS, 5472, 0.2195, 1.0, -, 9.2, 23.4, 0.7, "Iwate_ Japan", 2008, "AKT017", 6.9, Reverse, 31.44, 33.76, 643.62, 0.0375, 1.0, RSN5472_IWATE_AKT017NS.AT2, RSN5472_IWATE_AKT017EW.AT2 , RSN5472_IWATE_AKT017UD.AT2  
82, SRSS, 5474, 0.2136, 1.0, -, 9.5, 18.5, 0.8, "Iwate_ Japan", 2008, "AKT019", 6.9, Reverse, 26.03, 28.79, 640.14, 0.025, 1.0, RSN5474_IWATE_AKT019NS.AT2, RSN5474_IWATE_AKT019EW.AT2 , RSN5474_IWATE_AKT019UD.AT2  
